{"type": "FeatureCollection", "features": [ {"type": "Feature", "properties": {"norad_id": 67010, "name": "STARLINK-36189", "group": "last-30-days", "lat": -69.97185907527457, "lon": -165.0720447784716, "alt_km": 358.7159288449993, "timestamp": "2025-12-26T21:25:51.736253+00:00", "meta": {"OBJECT_NAME": "STARLINK-36189", "OBJECT_ID": "2025-293H", "EPOCH": "2025-12-26T14:00:04.000032", "MEAN_MOTION": 15.72708924, "ECCENTRICITY": 0.00036424, "INCLINATION": 69.9966, "RA_OF_ASC_NODE": 283.7938, "ARG_OF_PERICENTER": 263.951, "MEAN_ANOMALY": 55.12, "EPHEMERIS_TYPE": 0, "CLASSIFICATION_TYPE": "U", "NORAD_CAT_ID": 67010, "ELEMENT_SET_NO": 999, "REV_AT_EPOCH": 239, "BSTAR": -0.013557182, "MEAN_MOTION_DOT": -0.01628779, "MEAN_MOTION_DDOT": 0}, "tle": {"line1": "1 67010U 25293H   25360.58337963 -.01628779  00000+0 -13557-1 0  9998", "line2": "2 67010  69.9966 283.7938 0003642 263.9510  55.1200 15.72708924  2394"}}, "geometry": {"type": "Point", "coordinates": [-165.0720447784716, -69.97185907527457]}}, {"type": "Feature", "properties": {"norad_id": 67011, "name": "STARLINK-36167", "group": "last-30-days", "lat": -69.91400840060244, "lon": -172.01330867110352, "alt_km": 358.5409530793013, "timestamp": "2025-12-26T21:25:51.736263+00:00", "meta": {"OBJECT_NAME": "STARLINK-36167", "OBJECT_ID": "2025-293J", "EPOCH": "2025-12-26T14:00:04.000032", "MEAN_MOTION": 15.72724561, "ECCENTRICITY": 0.00037729, "INCLINATION": 69.996, "RA_OF_ASC_NODE": 283.7955, "ARG_OF_PERICENTER": 264.9457, "MEAN_ANOMALY": 51.7192, "EPHEMERIS_TYPE": 0, "CLASSIFICATION_TYPE": "U", "NORAD_CAT_ID": 67011, "ELEMENT_SET_NO": 999, "REV_AT_EPOCH": 233, "BSTAR": -0.013439486, "MEAN_MOTION_DOT": -0.01617267, "MEAN_MOTION_DDOT": 0}, "tle": {"line1": "1 67011U 25293J   25360.58337963 -.01617267  00000+0 -13439-1 0  9998", "line2": "2 67011  69.9960 283.7955 0003772 264.9457  51.7192 15.72724561  2334"}}, "geometry": {"type": "Point", "coordinates": [-172.01330867110352, -69.91400840060244]}}, {"type": "Feature", "properties": {"norad_id": 67012, "name": "STARLINK-36175", "group": "last-30-days", "lat": -69.79609617084067, "lon": -158.95217584032494, "alt_km": 358.63972352588644, "timestamp": "2025-12-26T21:25:51.736273+00:00", "meta": {"OBJECT_NAME": "STARLINK-36175", "OBJECT_ID": "2025-293K", "EPOCH": "2025-12-26T14:00:04.000032", "MEAN_MOTION": 15.72692413, "ECCENTRICITY": 0.00037939, "INCLINATION": 69.9964, "RA_OF_ASC_NODE": 283.7904, "ARG_OF_PERICENTER": 266.1925, "MEAN_ANOMALY": 55.0108, "EPHEMERIS_TYPE": 0, "CLASSIFICATION_TYPE": "U", "NORAD_CAT_ID": 67012, "ELEMENT_SET_NO": 999, "REV_AT_EPOCH": 233, "BSTAR": -0.013493545, "MEAN_MOTION_DOT": -0.01621084, "MEAN_MOTION_DDOT": 0}, "tle": {"line1": "1 67012U 25293K   25360.58337963 -.01621084  00000+0 -13494-1 0  9992", "line2": "2 67012  69.9964 283.7904 0003793 266.1925  55.0108 15.72692413  2334"}}, "geometry": {"type": "Point", "coordinates": [-158.95217584032494, -69.79609617084067]}}, {"type": "Feature", "properties": {"norad_id": 67013, "name": "STARLINK-35856", "group": "last-30-days", "lat": -69.35574545371072, "lon": -152.3159537341876, "alt_km": 358.7726893009067, "timestamp": "2025-12-26T21:25:51.736288+00:00", "meta": {"OBJECT_NAME": "STARLINK-35856", "OBJECT_ID": "2025-293L", "EPOCH": "2025-12-26T14:00:04.000032", "MEAN_MOTION": 15.72666805, "ECCENTRICITY": 0.00037535, "INCLINATION": 69.9963, "RA_OF_ASC_NODE": 283.7875, "ARG_OF_PERICENTER": 262.7256, "MEAN_ANOMALY": 60.8627, "EPHEMERIS_TYPE": 0, "CLASSIFICATION_TYPE": "U", "NORAD_CAT_ID": 67013, "ELEMENT_SET_NO": 999, "REV_AT_EPOCH": 233, "BSTAR": -0.013470364, "MEAN_MOTION_DOT": -0.01616989, "MEAN_MOTION_DDOT": 0}, "tle": {"line1": "1 67013U 25293L   25360.58337963 -.01616989  00000+0 -13470-1 0  9995", "line2": "2 67013  69.9963 283.7875 0003753 262.7256  60.8627 15.72666805  2332"}}, "geometry": {"type": "Point", "coordinates": [-152.3159537341876, -69.35574545371072]}}, {"type": "Feature", "properties": {"norad_id": 67014, "name": "STARLINK-36207", "group": "last-30-days", "lat": -68.70493116462235, "lon": -146.25427225348722, "alt_km": 358.7481315031873, "timestamp": "2025-12-26T21:25:51.736301+00:00", "meta": {"OBJECT_NAME": "STARLINK-36207", "OBJECT_ID": "2025-293M", "EPOCH": "2025-12-26T14:00:04.000032", "MEAN_MOTION": 15.72645611, "ECCENTRICITY": 0.00038548, "INCLINATION": 69.9967, "RA_OF_ASC_NODE": 283.7856, "ARG_OF_PERICENTER": 264.8911, "MEAN_ANOMALY": 60.988, "EPHEMERIS_TYPE": 0, "CLASSIFICATION_TYPE": "U", "NORAD_CAT_ID": 67014, "ELEMENT_SET_NO": 999, "REV_AT_EPOCH": 239, "BSTAR": -0.013433718, "MEAN_MOTION_DOT": -0.01611854, "MEAN_MOTION_DDOT": 0}, "tle": {"line1": "1 67014U 25293M   25360.58337963 -.01611854  00000+0 -13434-1 0  9992", "line2": "2 67014  69.9967 283.7856 0003854 264.8911  60.9880 15.72645611  2399"}}, "geometry": {"type": "Point", "coordinates": [-146.25427225348722, -68.70493116462235]}}, {"type": "Feature", "properties": {"norad_id": 67015, "name": "STARLINK-36093", "group": "last-30-days", "lat": -66.83078497640825, "lon": -135.44228639195092, "alt_km": 359.01187387404934, "timestamp": "2025-12-26T21:25:51.736311+00:00", "meta": {"OBJECT_NAME": "STARLINK-36093", "OBJECT_ID": "2025-293N", "EPOCH": "2025-12-26T14:00:04.000032", "MEAN_MOTION": 15.72615592, "ECCENTRICITY": 0.0003681, "INCLINATION": 69.9963, "RA_OF_ASC_NODE": 283.7794, "ARG_OF_PERICENTER": 264.1624, "MEAN_ANOMALY": 66.2548, "EPHEMERIS_TYPE": 0, "CLASSIFICATION_TYPE": "U", "NORAD_CAT_ID": 67015, "ELEMENT_SET_NO": 999, "REV_AT_EPOCH": 233, "BSTAR": -0.013533605, "MEAN_MOTION_DOT": -0.01620514, "MEAN_MOTION_DDOT": 0}, "tle": {"line1": "1 67015U 25293N   25360.58337963 -.01620514  00000+0 -13534-1 0  9997", "line2": "2 67015  69.9963 283.7794 0003681 264.1624  66.2548 15.72615592  2338"}}, "geometry": {"type": "Point", "coordinates": [-135.44228639195092, -66.83078497640825]}}, {"type": "Feature", "properties": {"norad_id": 67016, "name": "STARLINK-36120", "group": "last-30-days", "lat": -67.88965245759344, "lon": -140.81936593375414, "alt_km": 358.85861398604357, "timestamp": "2025-12-26T21:25:51.736321+00:00", "meta": {"OBJECT_NAME": "STARLINK-36120", "OBJECT_ID": "2025-293P", "EPOCH": "2025-12-26T14:00:04.000032", "MEAN_MOTION": 15.72634518, "ECCENTRICITY": 0.0003775, "INCLINATION": 69.9965, "RA_OF_ASC_NODE": 283.7824, "ARG_OF_PERICENTER": 265.1245, "MEAN_ANOMALY": 62.9422, "EPHEMERIS_TYPE": 0, "CLASSIFICATION_TYPE": "U", "NORAD_CAT_ID": 67016, "ELEMENT_SET_NO": 999, "REV_AT_EPOCH": 233, "BSTAR": -0.013495357, "MEAN_MOTION_DOT": -0.01617684, "MEAN_MOTION_DDOT": 0}, "tle": {"line1": "1 67016U 25293P   25360.58337963 -.01617684  00000+0 -13495-1 0  9998", "line2": "2 67016  69.9965 283.7824 0003775 265.1245  62.9422 15.72634518  2332"}}, "geometry": {"type": "Point", "coordinates": [-140.81936593375414, -67.88965245759344]}}, {"type": "Feature", "properties": {"norad_id": 67017, "name": "STARLINK-35498", "group": "last-30-days", "lat": -65.65723941798876, "lon": -130.73394259292795, "alt_km": 358.92106344075546, "timestamp": "2025-12-26T21:25:51.736333+00:00", "meta": {"OBJECT_NAME": "STARLINK-35498", "OBJECT_ID": "2025-293Q", "EPOCH": "2025-12-26T14:00:04.000032", "MEAN_MOTION": 15.7259468, "ECCENTRICITY": 0.00038541, "INCLINATION": 69.9956, "RA_OF_ASC_NODE": 283.7764, "ARG_OF_PERICENTER": 267.1159, "MEAN_ANOMALY": 65.5577, "EPHEMERIS_TYPE": 0, "CLASSIFICATION_TYPE": "U", "NORAD_CAT_ID": 67017, "ELEMENT_SET_NO": 999, "REV_AT_EPOCH": 252, "BSTAR": -0.013491731, "MEAN_MOTION_DOT": -0.01614911, "MEAN_MOTION_DDOT": 0}, "tle": {"line1": "1 67017U 25293Q   25360.58337963 -.01614911  00000+0 -13492-1 0  9996", "line2": "2 67017  69.9956 283.7764 0003854 267.1159  65.5577 15.72594680  2526"}}, "geometry": {"type": "Point", "coordinates": [-130.73394259292795, -65.65723941798876]}}, {"type": "Feature", "properties": {"norad_id": 67018, "name": "STARLINK-36106", "group": "last-30-days", "lat": -64.3442219611896, "lon": -126.43163277160586, "alt_km": 359.01503518631307, "timestamp": "2025-12-26T21:25:51.736343+00:00", "meta": {"OBJECT_NAME": "STARLINK-36106", "OBJECT_ID": "2025-293R", "EPOCH": "2025-12-26T14:00:04.000032", "MEAN_MOTION": 15.72577169, "ECCENTRICITY": 0.00038506, "INCLINATION": 69.9957, "RA_OF_ASC_NODE": 283.7733, "ARG_OF_PERICENTER": 265.5384, "MEAN_ANOMALY": 69.3998, "EPHEMERIS_TYPE": 0, "CLASSIFICATION_TYPE": "U", "NORAD_CAT_ID": 67018, "ELEMENT_SET_NO": 999, "REV_AT_EPOCH": 244, "BSTAR": -0.013498667, "MEAN_MOTION_DOT": -0.01614569, "MEAN_MOTION_DDOT": 0}, "tle": {"line1": "1 67018U 25293R   25360.58337963 -.01614569  00000+0 -13499-1 0  9993", "line2": "2 67018  69.9957 283.7733 0003850 265.5384  69.3998 15.72577169  2445"}}, "geometry": {"type": "Point", "coordinates": [-126.43163277160586, -64.3442219611896]}}, {"type": "Feature", "properties": {"norad_id": 67019, "name": "STARLINK-35688", "group": "last-30-days", "lat": -62.97286176539463, "lon": -122.67866520149511, "alt_km": 359.16269096470296, "timestamp": "2025-12-26T21:25:51.736353+00:00", "meta": {"OBJECT_NAME": "STARLINK-35688", "OBJECT_ID": "2025-293S", "EPOCH": "2025-12-26T14:00:04.000032", "MEAN_MOTION": 15.72567808, "ECCENTRICITY": 0.00037517, "INCLINATION": 69.9957, "RA_OF_ASC_NODE": 283.7704, "ARG_OF_PERICENTER": 264.1407, "MEAN_ANOMALY": 72.9708, "EPHEMERIS_TYPE": 0, "CLASSIFICATION_TYPE": "U", "NORAD_CAT_ID": 67019, "ELEMENT_SET_NO": 999, "REV_AT_EPOCH": 252, "BSTAR": -0.013560941, "MEAN_MOTION_DOT": -0.01620534, "MEAN_MOTION_DDOT": 0}, "tle": {"line1": "1 67019U 25293S   25360.58337963 -.01620534  00000+0 -13561-1 0  9993", "line2": "2 67019  69.9957 283.7704 0003751 264.1407  72.9708 15.72567808  2522"}}, "geometry": {"type": "Point", "coordinates": [-122.67866520149511, -62.97286176539463]}}]}